[{"OBJECT_NAME":"STARLINK-5495","OBJECT_ID":"2023-021H","EPOCH":"2026-03-09T16:57:15.087168","MEAN_MOTION":14.98345366,"ECCENTRICITY":0.00035922,"INCLINATION":70.0007,"RA_OF_ASC_NODE":184.4286,"ARG_OF_PERICENTER":276.1302,"MEAN_ANOMALY":83.9448,"EPHEMERIS_TYPE":0,"CLASSIFICATION_TYPE":"U","NORAD_CAT_ID":55635,"ELEMENT_SET_NO":999,"REV_AT_EPOCH":16879,"BSTAR":1.6539935e-5,"MEAN_MOTION_DOT":1.04e-6,"MEAN_MOTION_DDOT":0},{"OBJECT_NAME":"QPS-SAR-14 (YACHIHOKO-I)","OBJECT_ID":"2025-252A","EPOCH":"2026-03-09T23:58:05.760192","MEAN_MOTION":14.98763566,"ECCENTRICITY":0.00075988,"INCLINATION":42.0055,"RA_OF_ASC_NODE":316.7582,"ARG_OF_PERICENTER":330.3293,"MEAN_ANOMALY":29.71,"EPHEMERIS_TYPE":0,"CLASSIFICATION_TYPE":"U","NORAD_CAT_ID":66316,"ELEMENT_SET_NO":999,"REV_AT_EPOCH":1862,"BSTAR":0.00051193076,"MEAN_MOTION_DOT":6.093e-5,"MEAN_MOTION_DDOT":0}]
